{
    "links": {
        "self": "http://www.neowsapp.com/rest/v1/neo/3623579?api_key=iIulBulltgU6a56xZRHN4H3l9WmuAYTsLGpBGhQ2"
    },
    "id": "3623579",
    "neo_reference_id": "3623579",
    "name": "(2013 AR27)",
    "designation": "2013 AR27",
    "nasa_jpl_url": "http://ssd.jpl.nasa.gov/sbdb.cgi?sstr=3623579",
    "absolute_magnitude_h": 21.8,
    "estimated_diameter": {
        "kilometers": {
            "estimated_diameter_min": 0.1160259082,
            "estimated_diameter_max": 0.2594418179
        },
        "meters": {
            "estimated_diameter_min": 116.0259082094,
            "estimated_diameter_max": 259.4418179074
        },
        "miles": {
            "estimated_diameter_min": 0.0720951346,
            "estimated_diameter_max": 0.1612096218
        },
        "feet": {
            "estimated_diameter_min": 380.6624406898,
            "estimated_diameter_max": 851.1870938635
        }
    },
    "is_potentially_hazardous_asteroid": false,
    "close_approach_data": [
        {
            "close_approach_date": "2013-01-22",
            "close_approach_date_full": "2013-Jan-22 16:31",
            "epoch_date_close_approach": 1358872260000,
            "relative_velocity": {
                "kilometers_per_second": "14.3302685297",
                "kilometers_per_hour": "51588.9667070932",
                "miles_per_hour": "32055.3776741935"
            },
            "miss_distance": {
                "astronomical": "0.2179232767",
                "lunar": "84.7721546363",
                "kilometers": "32600858.017740629",
                "miles": "20257233.8318095202"
            },
            "orbiting_body": "Earth"
        },
        {
            "close_approach_date": "2013-06-12",
            "close_approach_date_full": "2013-Jun-12 19:15",
            "epoch_date_close_approach": 1371064500000,
            "relative_velocity": {
                "kilometers_per_second": "11.6821752435",
                "kilometers_per_hour": "42055.8308766781",
                "miles_per_hour": "26131.8578022337"
            },
            "miss_distance": {
                "astronomical": "0.3892251511",
                "lunar": "151.4085837779",
                "kilometers": "58227253.554988157",
                "miles": "36180737.6359722866"
            },
            "orbiting_body": "Earth"
        }
    ],
    "orbital_data": {
        "orbit_id": "7",
        "orbit_determination_date": "2017-04-06 08:47:23",
        "first_observation_date": "2013-01-06",
        "last_observation_date": "2013-01-21",
        "data_arc_in_days": 15,
        "observations_used": 39,
        "orbit_uncertainty": "8",
        "minimum_orbit_intersection": ".203005",
        "jupiter_tisserand_invariant": "4.050",
        "epoch_osculation": "2456300.5",
        "eccentricity": ".4516432187989273",
        "semi_major_axis": "1.668127813824638",
        "inclination": "22.97042073323421",
        "ascending_node_longitude": "101.4861438093816",
        "orbital_period": "786.9414341226928",
        "perihelion_distance": ".9147291986208608",
        "perihelion_argument": "87.29058552169164",
        "aphelion_distance": "2.421526429028415",
        "perihelion_time": "2456374.501389955843",
        "mean_anomaly": "326.1467814135328",
        "mean_motion": ".4574673341496364",
        "equinox": "J2000",
        "orbit_class": {
            "orbit_class_type": "APO",
            "orbit_class_description": "Near-Earth asteroid orbits which cross the Earth’s orbit similar to that of 1862 Apollo",
            "orbit_class_range": "a (semi-major axis) > 1.0 AU; q (perihelion) < 1.017 AU"
        }
    },
    "is_sentry_object": false
}